NORAD_CAT_ID,OBJECT_NAME,OBJECT_TYPE,EPOCH,MEAN_MOTION,ECCENTRICITY,INCLINATION,RA_OF_ASC_NODE,ARG_OF_PERICENTER,MEAN_ANOMALY,BSTAR,MEAN_MOTION_DOT,MEAN_MOTION_DDOT,TLE_LINE0,TLE_LINE1,TLE_LINE2,SEMIMAJOR_AXIS,PERIOD,APOGEE,PERIGEE,DECAYED
53794.0,STARLINK-4730,PAYLOAD,2022-11-17 14:00:01,15.20583959,0.000158,53.2166,297.4713,42.3249,319.9216,-0.057819,-0.01180193,0.0,0 STARLINK-4730,1 53794U 22111X   22321.58334491 -.01180193  00000-0 -57819-1 0  9998,2 53794  53.2166 297.4713 0001580  42.3249 319.9216 15.20583959 10508,6882.215,94.7,505.167,502.99300000000005,0.0
53794.0,STARLINK-4730,PAYLOAD,2022-11-17 22:00:00,15.19767595,0.000188,53.2166,295.9477,34.0201,353.411,-0.058876,-0.01173929,0.0,0 STARLINK-4730,1 53794U 22111X   22321.91667824 -.01173929  00000-0 -58876-1 0  9997,2 53794  53.2166 295.9477 0001880  34.0201 353.4110 15.19767595  1309,6884.679,94.751,507.839,505.25,0.0
53794.0,STARLINK-4730,PAYLOAD,2022-11-18 14:00:01,15.18134422,0.0001776999999999,53.2167,292.9088,40.3244,34.545,-0.061399,-0.01167851,0.0,0 STARLINK-4730,1 53794U 22111X   22322.58334491 -.01167851  00000-0 -61399-1 0  9993,2 53794  53.2167 292.9088 0001777  40.3244  34.5450 15.18134422  1307,6889.616,94.853,512.705,510.257,0.0
53794.0,STARLINK-4730,PAYLOAD,2022-11-18 22:00:00,15.1731841,0.0001851,53.2164,291.3909,39.6609,57.4598,-0.062569,-0.01162787,0.0,0 STARLINK-4730,1 53794U 22111X   22322.91667824 -.01162787  00000-0 -62569-1 0  9992,2 53794  53.2164 291.3909 0001851  39.6609  57.4598 15.17318410  1305,6892.0859999999975,94.904,515.227,512.675,0.0
53794.0,STARLINK-4730,PAYLOAD,2022-11-19 14:00:01,15.15688047,0.000185,53.2167,288.3635,42.2371,96.4532,-0.065407,-0.01160136,0.0,0 STARLINK-4730,1 53794U 22111X   22323.58334491 -.01160136  00000-0 -65407-1 0  9997,2 53794  53.2167 288.3635 0001850  42.2371  96.4532 15.15688047  1300,6897.026999999999,95.006,520.168,517.617,0.0
53794.0,STARLINK-4730,PAYLOAD,2022-11-19 22:00:00,15.1488038,0.0001975,53.2164,286.8512,39.8158,118.1879,-0.067334,-0.01166588,0.0,0 STARLINK-4730,1 53794U 22111X   22323.91667824 -.01166588  00000-0 -67334-1 0  9991,2 53794  53.2164 286.8512 0001975  39.8158 118.1879 15.14880380  1306,6899.479,95.057,522.706,519.981,0.0
53794.0,STARLINK-4730,PAYLOAD,2022-11-20 14:00:01,15.13242673,0.0001837,53.2167,283.835,44.1493,149.5606,-0.0697059999999999,-0.01153948,0.0,0 STARLINK-4730,1 53794U 22111X   22324.58334491 -.01153948  00000-0 -69706-1 0  9997,2 53794  53.2167 283.8350 0001837  44.1493 149.5606 15.13242673  1306,6904.456,95.16,527.589,525.052,0.0
53794.0,STARLINK-4730,PAYLOAD,2022-11-20 22:00:00,15.12424187,0.0001811,53.2175,282.3289,46.567,163.5284,-0.070802,-0.01146054,0.0,0 STARLINK-4730,1 53794U 22111X   22324.91667824 -.01146054  00000-0 -70802-1 0  9992,2 53794  53.2175 282.3289 0001811  46.5670 163.5284 15.12424187  1304,6906.946999999999,95.211,530.062,527.561,0.0
53794.0,STARLINK-4730,PAYLOAD,2022-11-21 08:00:01,15.11408639,0.0001571,53.2168,280.4513,48.7085,270.4894,-0.072992,-0.01148147,0.0,0 STARLINK-4730,1 53794U 22111X   22325.33334491 -.01148147  00000-0 -72992-1 0  9997,2 53794  53.2168 280.4513 0001571  48.7085 270.4894 15.11408639 11075,6910.04,95.275,532.991,530.82,0.0
53794.0,STARLINK-4730,PAYLOAD,2022-11-21 14:00:01,15.10819449,0.0001795,53.2165,279.3236,40.2051,199.7129,-0.076311,-0.01178232,0.0,0 STARLINK-4730,1 53794U 22111X   22325.58334491 -.01178232  00000-0 -76311-1 0  9991,2 53794  53.2165 279.3236 0001795  40.2051 199.7129 15.10819449  1302,6911.837,95.313,534.942,532.461,0.0
53794.0,STARLINK-4730,PAYLOAD,2022-11-21 22:00:00,15.09964978,0.0001756,53.2162,277.8229,36.4306,216.9418,-0.070608,-0.01072873,0.0,0 STARLINK-4730,1 53794U 22111X   22325.91667824 -.01072873  00000-0 -70608-1 0  9994,2 53794  53.2162 277.8229 0001756  36.4306 216.9418 15.09964978  1300,6914.444,95.366,537.523,535.095,0.0
53794.0,STARLINK-4730,PAYLOAD,2022-11-22 08:00:01,15.08982253,0.0001875,53.2164,275.9526,38.1231,320.705,-0.0141419999999999,-0.00219438,0.0,0 STARLINK-4730,1 53794U 22111X   22326.33334491 -.00219438  00000-0 -14142-1 0  9992,2 53794  53.2164 275.9526 0001875  38.1231 320.7050 15.08982253 11222,6917.446,95.429,540.6080000000002,538.014,0.0
53794.0,STARLINK-4730,PAYLOAD,2022-11-22 14:00:01,15.0888241,0.000178,53.2134,274.8263,38.5023,239.143,-0.0013067,-0.00021048,0.0,0 STARLINK-4730,1 53794U 22111X   22326.58335648 -.00021048  00000-0 -13067-2 0  9998,2 53794  53.2134 274.8263 0001780  38.5023 239.1430 15.08882410 11255,6917.751,95.435,540.847,538.384,0.0
53794.0,STARLINK-4730,PAYLOAD,2022-11-22 22:00:00,15.0888139,0.0001828,53.2143,273.3295,45.4763,243.731,-0.0027341,-0.00043588,0.0,0 STARLINK-4730,1 53794U 22111X   22326.91667824 -.00043588  00000-0 -27341-2 0  9992,2 53794  53.2143 273.3295 0001828  45.4763 243.7310 15.08881390  1304,6917.754,95.435,540.883,538.354,0.0
53794.0,STARLINK-4730,PAYLOAD,2022-11-23 14:00:01,15.08825012,0.0001929,53.2147,270.3367,43.1267,269.2889,-0.0028638,-0.0004556,0.0,0 STARLINK-4730,1 53794U 22111X   22327.58334491 -.00045560  00000-0 -28638-2 0  9999,2 53794  53.2147 270.3367 0001929  43.1267 269.2889 15.08825012  1304,6917.926,95.439,541.126,538.457,0.0
53794.0,STARLINK-4730,PAYLOAD,2022-11-23 16:00:00,15.08785818,0.0001875,53.2147,269.9622,45.0737,0.2456,0.0016442,0.00025938,0.0,0 STARLINK-4730,1 53794U 22111X   22327.66667824  .00025938  00000-0  16442-2 0  9992,2 53794  53.2147 269.9622 0001875  45.0737   0.2456 15.08785818 11421,6918.045999999999,95.441,541.2080000000002,538.614,0.0
53794.0,STARLINK-4730,PAYLOAD,2022-11-23 22:00:00,15.08813209,0.0001948,53.2149,268.8402,47.4879,276.4795,-0.00023813,-4.073e-05,0.0,0 STARLINK-4730,1 53794U 22111X   22327.91667824 -.00004073  00000-0 -23813-3 0  9990,2 53794  53.2149 268.8402 0001948  47.4879 276.4795 15.08813209  1306,6917.962,95.439,541.175,538.48,0.0
53794.0,STARLINK-4730,PAYLOAD,2022-11-24 14:00:01,15.08847339,0.0001917,53.215,265.8476,43.8444,303.261,0.00022065,3.226e-05,0.0,0 STARLINK-4730,1 53794U 22111X   22328.58334491  .00003226  00000-0  22065-3 0  9990,2 53794  53.2150 265.8476 0001917  43.8444 303.2610 15.08847339  1306,6917.858,95.437,541.049,538.3969999999998,0.0
53794.0,STARLINK-4730,PAYLOAD,2022-11-24 22:00:00,15.08881894,0.0001879,53.2152,264.3514,45.7082,312.9941,-0.0030821,-0.00049063,0.0,0 STARLINK-4730,1 53794U 22111X   22328.91667824 -.00049063  00000-0 -30821-2 0  9995,2 53794  53.2152 264.3514 0001879  45.7082 312.9941 15.08881894 11614,6917.752,95.435,540.9169999999998,538.317,0.0
53794.0,STARLINK-4730,PAYLOAD,2022-11-25 14:00:01,15.08848364,0.000187,53.2148,261.3585,44.3764,337.5502,-0.00031307,-5.268e-05,0.0,0 STARLINK-4730,1 53794U 22111X   22329.58334491 -.00005268  00000-0 -31307-3 0  9990,2 53794  53.2148 261.3585 0001870  44.3764 337.5502 15.08848364 11719,6917.855,95.437,541.013,538.4259999999998,0.0
53794.0,STARLINK-4730,PAYLOAD,2022-11-25 22:00:00,15.08857779,0.000194,53.2148,259.8625,48.2004,345.3293,-0.0018175,-0.00029112,0.0,0 STARLINK-4730,1 53794U 22111X   22329.91667824 -.00029112  00000-0 -18175-2 0  9997,2 53794  53.2148 259.8625 0001940  48.2004 345.3293 15.08857779  1302,6917.826,95.436,541.033,538.349,0.0
53794.0,STARLINK-4730,PAYLOAD,2022-11-26 14:00:01,15.08845373,0.0001942,53.2141,256.8694,48.3539,8.3814,0.00060603,9.372e-05,0.0,0 STARLINK-4730,1 53794U 22111X   22330.58334491  .00009372  00000-0  60603-3 0  9991,2 53794  53.2141 256.8694 0001942  48.3539   8.3814 15.08845373  1306,6917.864000000001,95.437,541.072,538.386,0.0
53794.0,STARLINK-4730,PAYLOAD,2022-11-26 22:00:00,15.0886298,0.0001933,53.2141,255.3736,48.592,19.7472,-0.002755,-0.00043896,0.0,0 STARLINK-4730,1 53794U 22111X   22330.91667824 -.00043896  00000-0 -27550-2 0  9991,2 53794  53.2141 255.3736 0001933  48.5920  19.7472 15.08862980  1302,6917.81,95.436,541.012,538.3380000000002,0.0
53794.0,STARLINK-4730,PAYLOAD,2022-11-27 14:00:01,15.08804902,0.0001834,53.215,252.3802,45.7498,45.7771,0.0019053,0.00030136,0.0,0 STARLINK-4730,1 53794U 22111X   22331.58334491  .00030136  00000-0  19053-2 0  9996,2 53794  53.2150 252.3802 0001834  45.7498  45.7771 15.08804902  1303,6917.988,95.44,541.121,538.5840000000002,0.0
53794.0,STARLINK-4730,PAYLOAD,2022-11-27 22:00:00,15.08844143,0.0001931,53.215,250.8845,47.3692,55.7178,-0.0013411,-0.00021571,0.0,0 STARLINK-4730,1 53794U 22111X   22331.91667824 -.00021571  00000-0 -13411-2 0  9999,2 53794  53.2150 250.8845 0001931  47.3692  55.7178 15.08844143  1308,6917.868,95.437,541.069,538.3969999999998,0.0
53794.0,STARLINK-4730,PAYLOAD,2022-11-28 00:00:00,15.08837373,0.0001987,53.2148,250.511,45.5891,150.3982,-0.00081613,-0.00013253,0.0,0 STARLINK-4730,1 53794U 22111X   22332.00001157 -.00013253  00000-0 -81613-3 0  9999,2 53794  53.2148 250.5110 0001987  45.5891 150.3982 15.08837373 12077,6917.888000000001,95.438,541.128,538.379,0.0
53794.0,STARLINK-4730,PAYLOAD,2022-11-28 22:00:01,15.08847209,0.0001973,53.2145,246.3953,46.1787,91.7371,-0.0012992,-0.0002091,0.0,0 STARLINK-4730,1 53794U 22111X   22332.91668981 -.00020910  00000-0 -12992-2 0  9994,2 53794  53.2145 246.3953 0001973  46.1787  91.7371 15.08847209 12213,6917.858,95.437,541.0880000000002,538.3580000000002,0.0
53794.0,STARLINK-4730,PAYLOAD,2022-11-29 14:00:01,15.088175199999998,0.0001891,53.2145,243.4015,44.1467,116.976,0.0014829,0.00023377,0.0,0 STARLINK-4730,1 53794U 22111X   22333.58335648  .00023377  00000-0  14829-2 0  9998,2 53794  53.2145 243.4015 0001891  44.1467 116.9760 15.08817520 12318,6917.949000000001,95.439,541.122,538.506,0.0
53794.0,STARLINK-4730,PAYLOAD,2022-11-29 22:00:00,15.08847869,0.0002007,53.2147,241.906,44.589,128.0463,-0.0011341,-0.00018296,0.0,0 STARLINK-4730,1 53794U 22111X   22333.91667824 -.00018296  00000-0 -11341-2 0  9991,2 53794  53.2147 241.9060 0002007  44.5890 128.0463 15.08847869  1307,6917.856,95.437,541.11,538.3330000000002,0.0
